H1 CPF 01  gfz 2021 01 18 13  5182 terrasarx 
H2 0702601  6201 31698    2021 01 18 12 59 42 2021 01 23 00 00 42   120 1 1  0 0 0
H9
10 0 59236  48942.000000  0    2292956.072   3454856.614   5491162.339
10 0 59236  49062.000000  0    2066974.043   2706414.963   5977959.893
10 0 59236  49182.000000  0    1791437.152   1915115.435   6359658.727
10 0 59236  49302.000000  0    1470544.266   1095613.515   6629586.254
10 0 59236  49422.000000  0    1109539.937    262962.532   6783028.456
10 0 59236  49542.000000  0     714628.031   -567661.910   6817306.478
10 0 59236  49662.000000  0     292864.942  -1381237.983   6731822.241
10 0 59236  49782.000000  0    -147966.713  -2163169.442   6528068.194
10 0 59236  49902.000000  0    -599501.705  -2899547.681   6209602.552
10 0 59236  50022.000000  0   -1052949.463  -3577400.007   5781989.088
10 0 59236  50142.000000  0   -1499262.093  -4184918.915   5252705.053
10 0 59236  50262.000000  0   -1929313.659  -4711672.166   4631019.151
10 0 59236  50382.000000  0   -2334087.385  -5148790.199   3927836.342
10 0 59236  50502.000000  0   -2704865.631  -5489124.992   3155509.509
10 0 59236  50622.000000  0   -3033417.073  -5727374.168   2327621.894
10 0 59236  50742.000000  0   -3312177.471  -5860169.292   1458746.284
10 0 59236  50862.000000  0   -3534420.146  -5886126.684    564183.869
10 0 59236  50982.000000  0   -3694411.593  -5805858.378   -340312.168
10 0 59236  51102.000000  0   -3787548.257  -5621943.061  -1238822.670
10 0 59236  51222.000000  0   -3810470.598  -5338856.598  -2115552.077
10 0 59236  51342.000000  0   -3761151.558  -4962864.060  -2955114.136
10 0 59236  51462.000000  0   -3638957.032  -4501876.659  -3742807.284
10 0 59236  51582.000000  0   -3444677.149  -3965278.475  -4464873.303
10 0 59236  51702.000000  0   -3180528.979  -3363728.447  -5108734.932
10 0 59236  51822.000000  0   -2850131.005  -2708941.979  -5663208.931
10 0 59236  51942.000000  0   -2458450.664  -2013457.932  -6118691.158
10 0 59236  52062.000000  0   -2011726.032  -1290396.103  -6467312.928
10 0 59236  52182.000000  0   -1517362.902   -553209.282  -6703065.519
10 0 59236  52302.000000  0    -983811.079    184564.313  -6821891.907
10 0 59236  52422.000000  0    -420421.988    909543.740  -6821748.424
10 0 59236  52542.000000  0     162712.005   1608741.843  -6702636.122
10 0 59236  52662.000000  0     754932.691   2269791.488  -6466601.366
10 0 59236  52782.000000  0    1345206.741   2881160.614  -6117706.531
10 0 59236  52902.000000  0    1922327.141   3432351.778  -5661966.929
10 0 59236  53022.000000  0    2475122.274   3914082.728  -5107256.768
10 0 59236  53142.000000  0    2992670.059   4318445.765  -4463184.731
10 0 59236  53262.000000  0    3464513.566   4639044.149  -3740938.576
10 0 59236  53382.000000  0    3880873.817   4871101.044  -2953099.805
10 0 59236  53502.000000  0    4232855.816   5011538.048  -2113429.991
10 0 59236  53622.000000  0    4512640.657   5059020.513  -1236632.600
10 0 59236  53742.000000  0    4713661.192   5013970.188   -338094.336
10 0 59236  53862.000000  0    4830754.951   4878540.691    566390.741
10 0 59236  53982.000000  0    4860288.642   4656557.888   1460905.484
10 0 59236  54102.000000  0    4800254.271   4353428.375   2329696.996
10 0 59236  54222.000000  0    4650333.576   3976015.217   3157463.868
10 0 59236  54342.000000  0    4411925.699   3532483.852   3929634.059
10 0 59236  54462.000000  0    4088139.445   3032123.579   4632626.083
10 0 59236  54582.000000  0    3683752.936   2485150.308   5254089.816
10 0 59236  54702.000000  0    3205137.356   1902493.427   5783123.990
10 0 59236  54822.000000  0    2660150.154   1295574.081   6210462.394
10 0 59236  54942.000000  0    2058001.273    676078.144   6528630.114
10 0 59236  55062.000000  0    1409093.814     55730.832   6732067.202
10 0 59236  55182.000000  0     724842.054   -553923.792   6817221.701
10 0 59236  55302.000000  0      17469.305  -1141737.984   6782608.371
10 0 59236  55422.000000  0    -700210.677  -1697163.763   6628832.270
10 0 59236  55542.000000  0   -1415025.467  -2210442.182   6358577.871
10 0 59236  55662.000000  0   -2113683.769  -2672774.356   5976563.768
10 0 59236  55782.000000  0   -2783020.651  -3076473.107   5489467.265
10 0 59236  55902.000000  0   -3410248.464  -3415094.938   4905815.896
10 0 59236  56022.000000  0   -3983206.218  -3683546.513   4235842.528
10 0 59236  56142.000000  0   -4490599.542  -3878163.929   3491309.394
10 0 59236  56262.000000  0   -4922228.166  -3996763.893   2685304.251
10 0 59236  56382.000000  0   -5269197.031  -4038666.087   1832010.810
10 0 59236  56502.000000  0   -5524104.761  -4004684.683    946454.912
10 0 59236  56622.000000  0   -5681203.839  -3897088.304     44233.563
10 0 59236  56742.000000  0   -5736529.010  -3719530.298   -858767.889
10 0 59236  56862.000000  0   -5687990.168  -3476950.677  -1746665.274
10 0 59236  56982.000000  0   -5535425.545  -3175451.080  -2603864.337
10 0 59236  57102.000000  0   -5280615.821  -2822148.053  -3415340.211
10 0 59236  57222.000000  0   -4927259.732  -2425008.445  -4166903.527
10 0 59236  57342.000000  0   -4480912.505  -1992671.134  -4845447.602
10 0 59236  57462.000000  0   -3948888.778  -1534260.089  -5439172.813
10 0 59236  57582.000000  0   -3340132.996  -1059192.353  -5937784.288
10 0 59236  57702.000000  0   -2665061.077   -576985.778  -6332659.861
10 0 59236  57822.000000  0   -1935377.015    -97070.830  -6616987.811
10 0 59236  57942.000000  0   -1163867.339    371389.833  -6785872.566
10 0 59236  58062.000000  0    -364179.486    819671.055  -6836409.070
10 0 59236  58182.000000  0     449414.385   1239643.636  -6767727.058
10 0 59236  58302.000000  0    1262264.777   1623917.042  -6581005.396
10 0 59236  58422.000000  0    2059603.444   1965967.409  -6279455.905
10 0 59236  58542.000000  0    2826806.693   2260247.386  -5868273.774
10 0 59236  58662.000000  0    3549660.209   2502275.992  -5354556.213
10 0 59236  58782.000000  0    4214620.527   2688707.591  -4747191.465
10 0 59236  58902.000000  0    4809072.059   2817379.491  -4056716.812
10 0 59236  59022.000000  0    5321572.182   2887335.769  -3295144.824
10 0 59236  59142.000000  0    5742078.401   2898827.053  -2475762.113
10 0 59236  59262.000000  0    6062155.651   2853286.715  -1612902.266
10 0 59236  59382.000000  0    6275154.587   2753281.153   -721694.197
10 0 59236  59502.000000  0    6376357.477   2602436.762    182206.381
10 0 59236  59622.000000  0    6363086.196   2405343.366   1082899.335
10 0 59236  59742.000000  0    6234769.850   2167438.090   1964526.288
10 0 59236  59862.000000  0    5992972.099   1894873.188   2811559.081
10 0 59236  59982.000000  0    5641373.439   1594368.455   3609082.090
10 0 59236  60102.000000  0    5185710.815   1273054.074   4343061.744
10 0 59236  60222.000000  0    4633675.319    938307.283   5000596.274
10 0 59236  60342.000000  0    3994774.380    597587.966   5570142.599
10 0 59236  60462.000000  0    3280158.045    258275.286   6041717.674
10 0 59236  60582.000000  0    2502414.980    -72488.754   6407067.248
10 0 59236  60702.000000  0    1675345.821   -387946.011   6659803.816
10 0 59236  60822.000000  0     813714.999   -681857.945   6795513.654
10 0 59236  60942.000000  0     -67015.702   -948627.727   6811829.238
10 0 59236  61062.000000  0    -950964.693  -1183405.862   6708466.882
10 0 59236  61182.000000  0   -1822115.971  -1382178.467   6487230.489
10 0 59236  61302.000000  0   -2664607.411  -1541835.512   6151981.050
10 0 59236  61422.000000  0   -3463018.161  -1660218.731   5708575.289
10 0 59236  61542.000000  0   -4202654.817  -1736150.234   5164771.168
10 0 59236  61662.000000  0   -4869827.474  -1769440.320   4530097.557
10 0 59236  61782.000000  0   -5452110.471  -1760873.182   3815691.457
10 0 59236  61902.000000  0   -5938581.401  -1712170.547   3034105.058
10 0 59236  62022.000000  0   -6320034.549  -1625934.960   2199087.131
10 0 59236  62142.000000  0   -6589165.991  -1505574.377   1325339.970
10 0 59236  62262.000000  0   -6740721.595  -1355208.299    428253.599
10 0 59236  62382.000000  0   -6771603.631  -1179557.733   -476373.173
10 0 59236  62502.000000  0   -6680934.236   -983822.331  -1372620.209
10 0 59236  62622.000000  0   -6470073.559   -773547.897  -2244734.904
10 0 59236  62742.000000  0   -6142593.581   -554488.360  -3077415.519
10 0 59236  62862.000000  0   -5704208.320   -332465.543  -3856085.091
10 0 59236  62982.000000  0   -5162661.367   -113228.523  -4567148.036
10 0 59236  63102.000000  0   -4527575.946     97682.240  -5198224.350
10 0 59236  63222.000000  0   -3810272.037    295062.794  -5738359.110
10 0 59236  63342.000000  0   -3023553.693    474162.710  -6178202.903
10 0 59236  63462.000000  0   -2181474.060    630789.333  -6510161.062
10 0 59236  63582.000000  0   -1299082.682    761397.197  -6728513.785
10 0 59236  63702.000000  0    -392157.583    863161.927  -6829504.374
10 0 59236  63822.000000  0     523071.172    934037.156  -6811395.306
10 0 59236  63942.000000  0    1430203.546    972793.170  -6674496.450
10 0 59236  64062.000000  0    2312957.805    979037.971  -6421162.137
10 0 59236  64182.000000  0    3155457.259    953219.991  -6055754.741
10 0 59236  64302.000000  0    3942511.877    896612.177  -5584576.278
10 0 59236  64422.000000  0    4659890.385    811277.270  -5015770.431
10 0 59236  64542.000000  0    5294580.890    700015.537  -4359193.662
10 0 59236  64662.000000  0    5835034.009    566295.422  -3626254.621
10 0 59236  64782.000000  0    6271382.332    414167.761  -2829724.540
10 0 59236  64902.000000  0    6595632.725    248165.925  -1983521.185
10 0 59236  65022.000000  0    6801826.528     73193.129  -1102467.173
10 0 59236  65142.000000  0    6886160.101   -105599.932   -202027.607
10 0 59236  65262.000000  0    6847064.232   -282943.956    701965.975
10 0 59236  65382.000000  0    6685240.008   -453584.304   1593601.580
99
